[{"OBJECT_NAME":"ONEWEB-0018","OBJECT_ID":"2020-020L","EPOCH":"2026-06-18T06:51:44.098848","MEAN_MOTION":13.11416789,"ECCENTRICITY":0.0001439,"INCLINATION":87.8886,"RA_OF_ASC_NODE":20.8474,"ARG_OF_PERICENTER":79.7689,"MEAN_ANOMALY":280.3601,"EPHEMERIS_TYPE":0,"CLASSIFICATION_TYPE":"U","NORAD_CAT_ID":45434,"ELEMENT_SET_NO":999,"REV_AT_EPOCH":30277,"BSTAR":0.00023701,"MEAN_MOTION_DOT":9.7e-07,"MEAN_MOTION_DDOT":0.0},{"OBJECT_NAME":"ONEWEB-0083","OBJECT_ID":"2020-020M","EPOCH":"2026-06-18T01:07:53.359968","MEAN_MOTION":13.11415776,"ECCENTRICITY":0.0001759,"INCLINATION":87.8892,"RA_OF_ASC_NODE":20.8887,"ARG_OF_PERICENTER":87.5109,"MEAN_ANOMALY":272.622,"EPHEMERIS_TYPE":0,"CLASSIFICATION_TYPE":"U","NORAD_CAT_ID":45435,"ELEMENT_SET_NO":999,"REV_AT_EPOCH":30278,"BSTAR":0.00128,"MEAN_MOTION_DOT":4.66e-06,"MEAN_MOTION_DDOT":0.0},{"OBJECT_NAME":"ONEWEB-0095","OBJECT_ID":"2020-020N","EPOCH":"2026-06-18T02:45:32.689152","MEAN_MOTION":13.1142172,"ECCENTRICITY":0.0002501,"INCLINATION":87.8892,"RA_OF_ASC_NODE":20.8838,"ARG_OF_PERICENTER":92.1072,"MEAN_ANOMALY":268.0343,"EPHEMERIS_TYPE":0,"CLASSIFICATION_TYPE":"U","NORAD_CAT_ID":45436,"ELEMENT_SET_NO":999,"REV_AT_EPOCH":30279,"BSTAR":0.0015898000000000002,"MEAN_MOTION_DOT":5.76e-06,"MEAN_MOTION_DDOT":0.0},{"OBJECT_NAME":"ONEWEB-0092","OBJECT_ID":"2020-020P","EPOCH":"2026-06-18T01:39:23.424768","MEAN_MOTION":13.1142156,"ECCENTRICITY":0.0002131,"INCLINATION":87.889,"RA_OF_ASC_NODE":20.8844,"ARG_OF_PERICENTER":83.8032,"MEAN_ANOMALY":276.3339,"EPHEMERIS_TYPE":0,"CLASSIFICATION_TYPE":"U","NORAD_CAT_ID":45437,"ELEMENT_SET_NO":999,"REV_AT_EPOCH":30290,"BSTAR":-0.00090527,"MEAN_MOTION_DOT":-3.08e-06,"MEAN_MOTION_DDOT":0.0},{"OBJECT_NAME":"ONEWEB-0085","OBJECT_ID":"2020-020Q","EPOCH":"2026-06-18T06:37:05.558592","MEAN_MOTION":13.11415137,"ECCENTRICITY":0.0001824,"INCLINATION":87.8886,"RA_OF_ASC_NODE":20.8499,"ARG_OF_PERICENTER":86.2902,"MEAN_ANOMALY":273.8435,"EPHEMERIS_TYPE":0,"CLASSIFICATION_TYPE":"U","NORAD_CAT_ID":45438,"ELEMENT_SET_NO":999,"REV_AT_EPOCH":30281,"BSTAR":0.0012787000000000002,"MEAN_MOTION_DOT":4.66e-06,"MEAN_MOTION_DDOT":0.0},{"OBJECT_NAME":"ONEWEB-0096","OBJECT_ID":"2020-020R","EPOCH":"2026-06-18T02:59:58.657344","MEAN_MOTION":13.1142122,"ECCENTRICITY":0.0001871,"INCLINATION":87.8893,"RA_OF_ASC_NODE":20.8759,"ARG_OF_PERICENTER":87.7842,"MEAN_ANOMALY":272.3501,"EPHEMERIS_TYPE":0,"CLASSIFICATION_TYPE":"U","NORAD_CAT_ID":45439,"ELEMENT_SET_NO":999,"REV_AT_EPOCH":30278,"BSTAR":0.001114,"MEAN_MOTION_DOT":4.08e-06,"MEAN_MOTION_DDOT":0.0},{"OBJECT_NAME":"ONEWEB-0037","OBJECT_ID":"2020-020S","EPOCH":"2026-06-18T01:57:34.242912","MEAN_MOTION":13.11913467,"ECCENTRICITY":0.00019,"INCLINATION":87.8905,"RA_OF_ASC_NODE":20.8581,"ARG_OF_PERICENTER":86.0571,"MEAN_ANOMALY":274.0774,"EPHEMERIS_TYPE":0,"CLASSIFICATION_TYPE":"U","NORAD_CAT_ID":45440,"ELEMENT_SET_NO":999,"REV_AT_EPOCH":30281,"BSTAR":-0.0011545,"MEAN_MOTION_DOT":-3.99e-06,"MEAN_MOTION_DDOT":0.0},{"OBJECT_NAME":"ONEWEB-0042","OBJECT_ID":"2020-020T","EPOCH":"2026-06-18T02:45:09.203040","MEAN_MOTION":13.11416145,"ECCENTRICITY":0.0001836,"INCLINATION":87.8892,"RA_OF_ASC_NODE":20.8742,"ARG_OF_PERICENTER":82.1465,"MEAN_ANOMALY":277.9871,"EPHEMERIS_TYPE":0,"CLASSIFICATION_TYPE":"U","NORAD_CAT_ID":45441,"ELEMENT_SET_NO":999,"REV_AT_EPOCH":30278,"BSTAR":0.0017089,"MEAN_MOTION_DOT":6.18e-06,"MEAN_MOTION_DDOT":0.0},{"OBJECT_NAME":"ONEWEB-0098","OBJECT_ID":"2020-020U","EPOCH":"2026-06-18T02:39:14.611392","MEAN_MOTION":13.11417999,"ECCENTRICITY":0.0001777,"INCLINATION":87.8891,"RA_OF_ASC_NODE":20.8845,"ARG_OF_PERICENTER":87.4951,"MEAN_ANOMALY":272.638,"EPHEMERIS_TYPE":0,"CLASSIFICATION_TYPE":"U","NORAD_CAT_ID":45442,"ELEMENT_SET_NO":999,"REV_AT_EPOCH":30276,"BSTAR":0.0013489,"MEAN_MOTION_DOT":4.91e-06,"MEAN_MOTION_DDOT":0.0},{"OBJECT_NAME":"ONEWEB-0055","OBJECT_ID":"2020-020V","EPOCH":"2026-06-18T02:08:31.622496","MEAN_MOTION":13.11418947,"ECCENTRICITY":0.000177,"INCLINATION":87.8894,"RA_OF_ASC_NODE":20.8875,"ARG_OF_PERICENTER":87.9394,"MEAN_ANOMALY":272.1937,"EPHEMERIS_TYPE":0,"CLASSIFICATION_TYPE":"U","NORAD_CAT_ID":45443,"ELEMENT_SET_NO":999,"REV_AT_EPOCH":30273,"BSTAR":-0.00080742,"MEAN_MOTION_DOT":-2.73e-06,"MEAN_MOTION_DDOT":0.0},{"OBJECT_NAME":"ONEWEB-0093","OBJECT_ID":"2020-020W","EPOCH":"2026-06-18T01:39:35.794656","MEAN_MOTION":13.11414305,"ECCENTRICITY":0.0001889,"INCLINATION":87.8892,"RA_OF_ASC_NODE":20.8842,"ARG_OF_PERICENTER":72.9722,"MEAN_ANOMALY":287.1613,"EPHEMERIS_TYPE":0,"CLASSIFICATION_TYPE":"U","NORAD_CAT_ID":45444,"ELEMENT_SET_NO":999,"REV_AT_EPOCH":30279,"BSTAR":-0.0010741000000000001,"MEAN_MOTION_DOT":-3.68e-06,"MEAN_MOTION_DDOT":0.0},{"OBJECT_NAME":"ONEWEB-0029","OBJECT_ID":"2020-020X","EPOCH":"2026-06-18T02:18:39.552768","MEAN_MOTION":13.11418969,"ECCENTRICITY":0.0001724,"INCLINATION":87.8886,"RA_OF_ASC_NODE":20.8883,"ARG_OF_PERICENTER":77.8395,"MEAN_ANOMALY":282.2926,"EPHEMERIS_TYPE":0,"CLASSIFICATION_TYPE":"U","NORAD_CAT_ID":45445,"ELEMENT_SET_NO":999,"REV_AT_EPOCH":30277,"BSTAR":-0.00070308,"MEAN_MOTION_DOT":-2.36e-06,"MEAN_MOTION_DDOT":0.0},{"OBJECT_NAME":"ONEWEB-0068","OBJECT_ID":"2020-020Y","EPOCH":"2026-06-18T01:39:12.444192","MEAN_MOTION":13.11414811,"ECCENTRICITY":0.0001725,"INCLINATION":87.8894,"RA_OF_ASC_NODE":20.8881,"ARG_OF_PERICENTER":79.7605,"MEAN_ANOMALY":280.3717,"EPHEMERIS_TYPE":0,"CLASSIFICATION_TYPE":"U","NORAD_CAT_ID":45446,"ELEMENT_SET_NO":999,"REV_AT_EPOCH":30271,"BSTAR":-0.00099378,"MEAN_MOTION_DOT":-3.4e-06,"MEAN_MOTION_DDOT":0.0},{"OBJECT_NAME":"ONEWEB-0046","OBJECT_ID":"2020-020Z","EPOCH":"2026-06-18T06:56:48.149952","MEAN_MOTION":13.11413921,"ECCENTRICITY":0.0001965,"INCLINATION":87.8885,"RA_OF_ASC_NODE":20.8502,"ARG_OF_PERICENTER":78.7806,"MEAN_ANOMALY":281.3542,"EPHEMERIS_TYPE":0,"CLASSIFICATION_TYPE":"U","NORAD_CAT_ID":45447,"ELEMENT_SET_NO":999,"REV_AT_EPOCH":30275,"BSTAR":-7.0941e-05,"MEAN_MOTION_DOT":-1.2e-07,"MEAN_MOTION_DDOT":0.0},{"OBJECT_NAME":"ONEWEB-0063","OBJECT_ID":"2020-020AA","EPOCH":"2026-06-18T02:08:53.468736","MEAN_MOTION":13.11417503,"ECCENTRICITY":0.0002151,"INCLINATION":87.8895,"RA_OF_ASC_NODE":20.889,"ARG_OF_PERICENTER":85.1192,"MEAN_ANOMALY":275.0181,"EPHEMERIS_TYPE":0,"CLASSIFICATION_TYPE":"U","NORAD_CAT_ID":45448,"ELEMENT_SET_NO":999,"REV_AT_EPOCH":30281,"BSTAR":-0.0013829,"MEAN_MOTION_DOT":-4.77e-06,"MEAN_MOTION_DDOT":0.0},{"OBJECT_NAME":"ONEWEB-0019","OBJECT_ID":"2020-020AB","EPOCH":"2026-06-18T06:44:24.672768","MEAN_MOTION":13.11414965,"ECCENTRICITY":0.0001723,"INCLINATION":87.8888,"RA_OF_ASC_NODE":20.8372,"ARG_OF_PERICENTER":90.2283,"MEAN_ANOMALY":269.9043,"EPHEMERIS_TYPE":0,"CLASSIFICATION_TYPE":"U","NORAD_CAT_ID":45449,"ELEMENT_SET_NO":999,"REV_AT_EPOCH":30268,"BSTAR":0.0010567,"MEAN_MOTION_DOT":3.87e-06,"MEAN_MOTION_DDOT":0.0}]