ONEWEB-0018             
1 45434U 20020L   26169.28592707  .00000097  00000+0  23701-3 0  9999
2 45434  87.8886  20.8474 0001439  79.7689 280.3601 13.11416789302775
ONEWEB-0083             
1 45435U 20020M   26169.04714537  .00000466  00000+0  12800-2 0  9998
2 45435  87.8892  20.8887 0001759  87.5109 272.6220 13.11415776302787
ONEWEB-0095             
1 45436U 20020N   26169.11496168  .00000576  00000+0  15898-2 0  9996
2 45436  87.8892  20.8838 0002501  92.1072 268.0343 13.11421720302793
ONEWEB-0092             
1 45437U 20020P   26169.06902112 -.00000308  00000+0 -90527-3 0  9990
2 45437  87.8890  20.8844 0002131  83.8032 276.3339 13.11421560302903
ONEWEB-0085             
1 45438U 20020Q   26169.27575878  .00000466  00000+0  12787-2 0  9993
2 45438  87.8886  20.8499 0001824  86.2902 273.8435 13.11415137302818
ONEWEB-0096             
1 45439U 20020R   26169.12498446  .00000408  00000+0  11140-2 0  9991
2 45439  87.8893  20.8759 0001871  87.7842 272.3501 13.11421220302781
ONEWEB-0037             
1 45440U 20020S   26169.08164633 -.00000399  00000+0 -11545-2 0  9996
2 45440  87.8905  20.8581 0001900  86.0571 274.0774 13.11913467302818
ONEWEB-0042             
1 45441U 20020T   26169.11468985  .00000618  00000+0  17089-2 0  9999
2 45441  87.8892  20.8742 0001836  82.1465 277.9871 13.11416145302787
ONEWEB-0098             
1 45442U 20020U   26169.11058578  .00000491  00000+0  13489-2 0  9992
2 45442  87.8891  20.8845 0001777  87.4951 272.6380 13.11417999302766
ONEWEB-0055             
1 45443U 20020V   26169.08925489 -.00000273  00000+0 -80742-3 0  9990
2 45443  87.8894  20.8875 0001770  87.9394 272.1937 13.11418947302736
ONEWEB-0093             
1 45444U 20020W   26169.06916429 -.00000368  00000+0 -10741-2 0  9999
2 45444  87.8892  20.8842 0001889  72.9722 287.1613 13.11414305302796
ONEWEB-0029             
1 45445U 20020X   26169.09629112 -.00000236  00000+0 -70308-3 0  9993
2 45445  87.8886  20.8883 0001724  77.8395 282.2926 13.11418969302774
ONEWEB-0068             
1 45446U 20020Y   26169.06889403 -.00000340  00000+0 -99378-3 0  9996
2 45446  87.8894  20.8881 0001725  79.7605 280.3717 13.11414811302711
ONEWEB-0046             
1 45447U 20020Z   26169.28944618 -.00000012  00000+0 -70941-4 0  9993
2 45447  87.8885  20.8502 0001965  78.7806 281.3542 13.11413921302752
ONEWEB-0063             
1 45448U 20020AA  26169.08950774 -.00000477  00000+0 -13829-2 0  9997
2 45448  87.8895  20.8890 0002151  85.1192 275.0181 13.11417503302818
ONEWEB-0019             
1 45449U 20020AB  26169.28084112  .00000387  00000+0  10567-2 0  9998
2 45449  87.8888  20.8372 0001723  90.2283 269.9043 13.11414965302681
